{
    "links": {
        "self": "http://www.neowsapp.com/rest/v1/neo/3619156?api_key=iIulBulltgU6a56xZRHN4H3l9WmuAYTsLGpBGhQ2"
    },
    "id": "3619156",
    "neo_reference_id": "3619156",
    "name": "(2012 WE33)",
    "designation": "2012 WE33",
    "nasa_jpl_url": "http://ssd.jpl.nasa.gov/sbdb.cgi?sstr=3619156",
    "absolute_magnitude_h": 24.1,
    "estimated_diameter": {
        "kilometers": {
            "estimated_diameter_min": 0.040230458,
            "estimated_diameter_max": 0.0899580388
        },
        "meters": {
            "estimated_diameter_min": 40.2304579834,
            "estimated_diameter_max": 89.9580388169
        },
        "miles": {
            "estimated_diameter_min": 0.0249980399,
            "estimated_diameter_max": 0.0558973165
        },
        "feet": {
            "estimated_diameter_min": 131.9896957704,
            "estimated_diameter_max": 295.1379320721
        }
    },
    "is_potentially_hazardous_asteroid": false,
    "close_approach_data": [
        {
            "close_approach_date": "2009-12-05",
            "close_approach_date_full": "2009-Dec-05 11:42",
            "epoch_date_close_approach": 1260013320000,
            "relative_velocity": {
                "kilometers_per_second": "15.8978953721",
                "kilometers_per_hour": "57232.4233396968",
                "miles_per_hour": "35562.0021579355"
            },
            "miss_distance": {
                "astronomical": "0.4993473608",
                "lunar": "194.2461233512",
                "kilometers": "74701301.565801496",
                "miles": "46417236.3971368048"
            },
            "orbiting_body": "Earth"
        },
        {
            "close_approach_date": "2012-12-02",
            "close_approach_date_full": "2012-Dec-02 05:53",
            "epoch_date_close_approach": 1354427580000,
            "relative_velocity": {
                "kilometers_per_second": "13.5288601802",
                "kilometers_per_hour": "48703.8966485695",
                "miles_per_hour": "30262.7073369959"
            },
            "miss_distance": {
                "astronomical": "0.0724255019",
                "lunar": "28.1735202391",
                "kilometers": "10834700.817920953",
                "miles": "6732370.9040690314"
            },
            "orbiting_body": "Earth"
        },
        {
            "close_approach_date": "2013-04-13",
            "close_approach_date_full": "2013-Apr-13 14:44",
            "epoch_date_close_approach": 1365864240000,
            "relative_velocity": {
                "kilometers_per_second": "11.7420785124",
                "kilometers_per_hour": "42271.4826446648",
                "miles_per_hour": "26265.855424403"
            },
            "miss_distance": {
                "astronomical": "0.4539282833",
                "lunar": "176.5781022037",
                "kilometers": "67906704.314436571",
                "miles": "42195269.4403478398"
            },
            "orbiting_body": "Earth"
        },
        {
            "close_approach_date": "2016-05-12",
            "close_approach_date_full": "2016-May-12 18:04",
            "epoch_date_close_approach": 1463076240000,
            "relative_velocity": {
                "kilometers_per_second": "12.6827778488",
                "kilometers_per_hour": "45658.0002558334",
                "miles_per_hour": "28370.105770076"
            },
            "miss_distance": {
                "astronomical": "0.4191635188",
                "lunar": "163.0546088132",
                "kilometers": "62705969.594184956",
                "miles": "38963682.7358501528"
            },
            "orbiting_body": "Earth"
        },
        {
            "close_approach_date": "2029-08-08",
            "close_approach_date_full": "2029-Aug-08 09:22",
            "epoch_date_close_approach": 1880875320000,
            "relative_velocity": {
                "kilometers_per_second": "10.6991611028",
                "kilometers_per_hour": "38516.9799700008",
                "miles_per_hour": "23932.9534708041"
            },
            "miss_distance": {
                "astronomical": "0.0321489523",
                "lunar": "12.5059424447",
                "kilometers": "4809414.786811601",
                "miles": "2988431.7731020538"
            },
            "orbiting_body": "Mars"
        }
    ],
    "orbital_data": {
        "orbit_id": "6",
        "orbit_determination_date": "2017-04-06 08:47:51",
        "first_observation_date": "2012-11-27",
        "last_observation_date": "2012-12-08",
        "data_arc_in_days": 11,
        "observations_used": 40,
        "orbit_uncertainty": "8",
        "minimum_orbit_intersection": ".0720425",
        "jupiter_tisserand_invariant": "4.928",
        "epoch_osculation": "2456263.5",
        "eccentricity": ".2043254416419691",
        "semi_major_axis": "1.286924311277009",
        "inclination": "24.65725046586166",
        "ascending_node_longitude": "68.50877379639974",
        "orbital_period": "533.2464030922154",
        "perihelion_distance": "1.023972933015547",
        "perihelion_argument": "36.96794605133597",
        "aphelion_distance": "1.54987568953847",
        "perihelion_time": "2456297.521424968651",
        "mean_anomaly": "337.0317944618253",
        "mean_motion": ".6751100390221375",
        "equinox": "J2000",
        "orbit_class": {
            "orbit_class_type": "AMO",
            "orbit_class_description": "Near-Earth asteroid orbits similar to that of 1221 Amor",
            "orbit_class_range": "1.017 AU < q (perihelion) < 1.3 AU"
        }
    },
    "is_sentry_object": false
}